CUBEBUG-2 (LO-74)       
1 39440U 13066AA  26168.13017218  .00004009  00000+0  37158-3 0  9991
2 39440  97.8909 117.1080 0058392  29.2654 331.1816 14.93761629676984
FUNCUBE-1 (AO-73)       
1 39444U 13066AE  26168.18912497  .00005092  00000+0  31739-3 0  9995
2 39444  97.8278 139.6350 0035625 200.8466 159.1312 15.09490131679660
UWE-3                   
1 39446U 13066AG  26168.14881219  .00003686  00000+0  31825-3 0  9993
2 39446  97.8697 124.2222 0047554 321.2841  38.4975 14.97024580677573
UNISAT-6                
1 40012U 14033C   26168.13329300  .00002048  00000+0  22346-3 0  9995
2 40012  97.7880 320.8458 0046258  69.4804 291.1368 14.88246346646152
DUCHIFAT-1              
1 40021U 14033M   26168.08560661  .00086906  00000+0  89449-3 0  9998
2 40021  98.0464 227.2320 0003017 117.8101 242.3462 15.64575667655739
QB50P1                  
1 40025U 14033R   26168.01826155  .00006622  00000+0  32676-3 0  9995
2 40025  98.0959 179.1525 0007771 215.7704 144.3009 15.18259399653008
LILACSAT-2              
1 40908U 15049K   26168.14326480  .00015706  00000+0  26766-3 0  9999
2 40908  97.4640 204.9833 0005504 245.1794 114.8886 15.51445501595745
FOX-1A (AO-85)          
1 40967U 15058D   26167.68181392  .00001893  00000+0  17791-3 0  9993
2 40967  64.7762 280.5545 0130434  56.7813 304.5723 14.90967641113493
CAS-2T & KS-1Q          
1 41847U 16066G   26168.10210262  .00001464  00000+0  21211-3 0  9994
2 41847  98.3822 243.8394 0342791 129.7362 233.4574 14.44694196504787
RADFXSAT (FOX-1B)       
1 43017U 17073E   26167.87725140  .00006435  00000+0  28237-3 0  9991
2 43017  97.4700  35.0982 0149597 330.3447  28.9362 15.12714806465347
DIWATA-2B               
1 43678U 18084H   26168.16987603  .00001848  00000+0  15186-3 0  9996
2 43678  98.1176   4.3769 0012454 170.1623 189.9846 15.00451413416210
ES'HAIL 2               
1 43700U 18090A   26167.76128993  .00000141  00000+0  00000+0 0  9993
2 43700   0.0175  13.0563 0001609 111.1044  80.7103  1.00270422 27674
FOX-1CLIFF (AO-95)      
1 43770U 18099N   26168.07768584  .00008495  00000+0  32585-3 0  9997
2 43770  97.4377 228.3240 0008015 358.3835   1.7377 15.26709473413209
ITASAT                  
1 43786U 18099AE  26168.08754567  .00005482  00000+0  26431-3 0  9997
2 43786  97.4026 219.6012 0012101   0.6685 359.4564 15.19055872412892
JY1SAT (JO-97)          
1 43803U 18099AX  26167.70427300  .00013619  00000+0  42078-3 0  9993
2 43803  97.4127 230.5368 0004320 264.4420  95.6330 15.33640706413557
UWE-4                   
1 43880U 18111E   26167.76208191  .00028639  00000+0  58526-3 0  9997
2 43880  97.5856  96.1335 0005598 344.6304  15.4774 15.46104351410714
TIANYAN 01              
1 44881U 19093C   26168.17937637  .00000851  00000+0  10197-3 0  9997
2 44881  97.7538 240.4116 0015136  86.9389 273.3558 14.86521169351413
RS-44 & BREEZE-KM R/B   
1 44909U 19096E   26168.16155683  .00000014  00000+0  71768-5 0  9997
2 44909  82.5218 339.7219 0218169 144.2252 217.3691 12.79748847302343
SALSAT                  
1 46495U 20068K   26168.01469823  .00006653  00000+0  23324-3 0  9996
2 46495  97.8847 171.0688 0008038 308.8582  51.1939 15.29798435315333
XW-3 (CAS-9)            
1 50466U 21131B   26168.19344968  .00000384  00000+0  13213-3 0  9993
2 50466  98.4989 260.5827 0005398  97.0630 263.1173 14.41357609235115
GREENCUBE (IO-117)      
1 53109U 22080E   26164.29338770 -.00000003  00000+0  00000+0 0  9990
2 53109  70.1444 299.5995 0008910 290.4576  69.5127  6.42583230 91811
UMKA 1 (RS40S)          
1 57172U 23091G   26168.15971516  .00004936  00000+0  22640-3 0  9993
2 57172  97.5048 226.8569 0014237 117.7218 242.5463 15.20818474164006
CUBESX-HSE 3 (RS42S)    
1 57178U 23091N   26168.17384297  .00010474  00000+0  34912-3 0  9994
2 57178  97.5090 233.7608 0012048  94.8556 265.4061 15.31215634164423
MONITOR-3 (RS58S)       
1 57180U 23091Q   26168.13280888  .00008331  00000+0  30846-3 0  9995
2 57180  97.5082 231.5784 0013102 100.9442 259.3272 15.27840413164287
MONITOR-4 (RS57S)       
1 57182U 23091S   26168.17735926  .00008730  00000+0  32223-3 0  9993
2 57182  97.5075 231.5947 0013105 101.2533 259.0179 15.27927519164297
MONITOR-2 (RS39S)       
1 57184U 23091U   26168.18093426  .00004210  00000+0  20465-3 0  9992
2 57184  97.5071 226.4639 0012746 111.1192 249.1405 15.18910415163958
SVYATOBOR 1 (RS60S)     
1 57187U 23091X   26168.19044277  .00007539  00000+0  29017-3 0  9995
2 57187  97.5088 232.0074 0010873  94.3748 265.8733 15.26615803164315
VIZARD-METEO (RS38S)    
1 57189U 23091Z   26168.14761780  .00013445  00000+0  38499-3 0  9994
2 57189  97.5092 237.6319 0008271  77.7825 282.4344 15.36025142164680
POLYTECH-UNIVERSE 3 (R*)
1 57191U 23091AB  26168.07639632  .00004196  00000+0  20246-3 0  9993
2 57191  97.5046 225.8645 0016848 127.0921 233.1856 15.19112987163931
UTMN 2 (RS27S)          
1 57203U 23091AP  26168.12612308  .00011830  00000+0  38419-3 0  9998
2 57203  97.5087 235.3462 0009272  84.0552 276.1746 15.32052698164537
