OBJECT_NAME,OBJECT_ID,EPOCH,MEAN_MOTION,ECCENTRICITY,INCLINATION,RA_OF_ASC_NODE,ARG_OF_PERICENTER,MEAN_ANOMALY,EPHEMERIS_TYPE,CLASSIFICATION_TYPE,NORAD_CAT_ID,ELEMENT_SET_NO,REV_AT_EPOCH,BSTAR,MEAN_MOTION_DOT,MEAN_MOTION_DDOT
CUBEBUG-2 (LO-74),2013-066AA,2026-06-17T03:07:26.876352,14.93761629,.0058392,97.8909,117.1080,29.2654,331.1816,0,U,39440,999,67698,.37158E-3,.4009E-4,0
FUNCUBE-1 (AO-73),2013-066AE,2026-06-17T04:32:20.397408,15.09490131,.0035625,97.8278,139.6350,200.8466,159.1312,0,U,39444,999,67966,.31739E-3,.5092E-4,0
UWE-3,2013-066AG,2026-06-17T03:34:17.373216,14.97024580,.0047554,97.8697,124.2222,321.2841,38.4975,0,U,39446,999,67757,.31825E-3,.3686E-4,0
UNISAT-6,2014-033C,2026-06-17T03:11:56.515200,14.88246346,.0046258,97.7880,320.8458,69.4804,291.1368,0,U,40012,999,64615,.22346E-3,.2048E-4,0
DUCHIFAT-1,2014-033M,2026-06-17T02:03:16.411104,15.64575667,.0003017,98.0464,227.2320,117.8101,242.3462,0,U,40021,999,65573,.89449E-3,.86906E-3,0
QB50P1,2014-033R,2026-06-17T00:26:17.797920,15.18259399,.0007771,98.0959,179.1525,215.7704,144.3009,0,U,40025,999,65300,.32676E-3,.6622E-4,0
LILACSAT-2,2015-049K,2026-06-17T03:26:18.078720,15.51445501,.0005504,97.4640,204.9833,245.1794,114.8886,0,U,40908,999,59574,.26766E-3,.15706E-3,0
FOX-1A (AO-85),2015-058D,2026-06-16T16:21:48.722688,14.90967641,.0130434,64.7762,280.5545,56.7813,304.5723,0,U,40967,999,11349,.17791E-3,.1893E-4,0
CAS-2T & KS-1Q,2016-066G,2026-06-17T02:27:01.666368,14.44694196,.0342791,98.3822,243.8394,129.7362,233.4574,0,U,41847,999,50478,.21211E-3,.1464E-4,0
RADFXSAT (FOX-1B),2017-073E,2026-06-16T21:03:14.520960,15.12714806,.0149597,97.4700,35.0982,330.3447,28.9362,0,U,43017,999,46534,.28237E-3,.6435E-4,0
DIWATA-2B,2018-084H,2026-06-17T04:04:37.288992,15.00451413,.0012454,98.1176,4.3769,170.1623,189.9846,0,U,43678,999,41621,.15186E-3,.1848E-4,0
ES'HAIL 2,2018-090A,2026-06-16T18:16:15.449952,1.00270422,.0001609,0.0175,13.0563,111.1044,80.7103,0,U,43700,999,2767,0,.141E-5,0
FOX-1CLIFF (AO-95),2018-099N,2026-06-17T01:51:52.056576,15.26709473,.0008015,97.4377,228.3240,358.3835,1.7377,0,U,43770,999,41320,.32585E-3,.8495E-4,0
ITASAT,2018-099AE,2026-06-17T02:06:03.945888,15.19055872,.0012101,97.4026,219.6012,0.6685,359.4564,0,U,43786,999,41289,.26431E-3,.5482E-4,0
JY1SAT (JO-97),2018-099AX,2026-06-16T16:54:09.187200,15.33640706,.000432,97.4127,230.5368,264.4420,95.6330,0,U,43803,999,41355,.42078E-3,.13619E-3,0
UWE-4,2018-111E,2026-06-16T18:17:23.877024,15.46104351,.0005598,97.5856,96.1335,344.6304,15.4774,0,U,43880,999,41071,.58526E-3,.28639E-3,0
TIANYAN 01,2019-093C,2026-06-17T04:18:18.118368,14.86521169,.0015136,97.7538,240.4116,86.9389,273.3558,0,U,44881,999,35141,.10197E-3,.851E-5,0
RS-44 & BREEZE-KM R/B,2019-096E,2026-06-17T03:52:38.510112,12.79748847,.0218169,82.5218,339.7219,144.2252,217.3691,0,U,44909,999,30234,.71768E-5,.14E-6,0
SALSAT,2020-068K,2026-06-17T00:21:09.927072,15.29798435,.0008038,97.8847,171.0688,308.8582,51.1939,0,U,46495,999,31533,.23324E-3,.6653E-4,0
XW-3 (CAS-9),2021-131B,2026-06-17T04:38:34.052352,14.41357609,.0005398,98.4989,260.5827,97.0630,263.1173,0,U,50466,999,23511,.13213E-3,.384E-5,0
GREENCUBE (IO-117),2022-080E,2026-06-13T07:02:28.697280,6.42583230,.00089108,70.1444,299.5995,290.4576,69.5127,0,U,53109,999,9181,0,-.3E-7,0
UMKA 1 (RS40S),2023-091G,2026-06-17T03:49:59.389824,15.20818474,.0014237,97.5048,226.8569,117.7218,242.5463,0,U,57172,999,16400,.2264E-3,.4936E-4,0
CUBESX-HSE 3 (RS42S),2023-091N,2026-06-17T04:10:20.032608,15.31215634,.0012048,97.5090,233.7608,94.8556,265.4061,0,U,57178,999,16442,.34912E-3,.10474E-3,0
MONITOR-3 (RS58S),2023-091Q,2026-06-17T03:11:14.687232,15.27840413,.0013102,97.5082,231.5784,100.9442,259.3272,0,U,57180,999,16428,.30846E-3,.8331E-4,0
MONITOR-4 (RS57S),2023-091S,2026-06-17T04:15:23.840064,15.27927519,.0013105,97.5075,231.5947,101.2533,259.0179,0,U,57182,999,16429,.32223E-3,.873E-4,0
MONITOR-2 (RS39S),2023-091U,2026-06-17T04:20:32.720064,15.18910415,.0012746,97.5071,226.4639,111.1192,249.1405,0,U,57184,999,16395,.20465E-3,.421E-4,0
SVYATOBOR 1 (RS60S),2023-091X,2026-06-17T04:34:14.255328,15.26615803,.0010873,97.5088,232.0074,94.3748,265.8733,0,U,57187,999,16431,.29017E-3,.7539E-4,0
VIZARD-METEO (RS38S),2023-091Z,2026-06-17T03:32:34.177920,15.36025142,.0008271,97.5092,237.6319,77.7825,282.4344,0,U,57189,999,16468,.38499E-3,.13445E-3,0
POLYTECH-UNIVERSE 3 (RS46S),2023-091AB,2026-06-17T01:50:00.642048,15.19112987,.0016848,97.5046,225.8645,127.0921,233.1856,0,U,57191,999,16393,.20246E-3,.4196E-4,0
UTMN 2 (RS27S),2023-091AP,2026-06-17T03:01:37.034112,15.32052698,.0009272,97.5087,235.3462,84.0552,276.1746,0,U,57203,999,16453,.38419E-3,.1183E-3,0
